[{"OBJECT_NAME":"STARLINK-30250","OBJECT_ID":"2023-115G","EPOCH":"2026-03-09T04:37:04.931616","MEAN_MOTION":15.26761278,"ECCENTRICITY":4.786e-5,"INCLINATION":42.9981,"RA_OF_ASC_NODE":4.5339,"ARG_OF_PERICENTER":287.7071,"MEAN_ANOMALY":72.3728,"EPHEMERIS_TYPE":0,"CLASSIFICATION_TYPE":"U","NORAD_CAT_ID":57527,"ELEMENT_SET_NO":999,"REV_AT_EPOCH":14317,"BSTAR":-0.00023974414,"MEAN_MOTION_DOT":-6.688e-5,"MEAN_MOTION_DDOT":0},{"OBJECT_NAME":"FLOCK 4G-25","OBJECT_ID":"2025-009AP","EPOCH":"2026-03-09T17:53:50.680608","MEAN_MOTION":15.27424196,"ECCENTRICITY":8.276e-5,"INCLINATION":97.4049,"RA_OF_ASC_NODE":151.4141,"ARG_OF_PERICENTER":316.3151,"MEAN_ANOMALY":43.8023,"EPHEMERIS_TYPE":0,"CLASSIFICATION_TYPE":"U","NORAD_CAT_ID":62646,"ELEMENT_SET_NO":999,"REV_AT_EPOCH":6373,"BSTAR":0.00038902475,"MEAN_MOTION_DOT":0.00010373,"MEAN_MOTION_DDOT":0}]
